[Satellite]
VERSION=1.1
NAME=POLYITAN-2-SAU
NICKNAME=POLYITAN-2-SAU
TLE1=1 42732U 98067MM  17185.81827492  .00008938  00000-0  13452-3 0  9997
TLE2=2 42732  51.6398 310.1032 0007887 325.1324  34.9150 15.55630467  6080
